NORAD_CAT_ID,OBJECT_NAME,OBJECT_TYPE,EPOCH,MEAN_MOTION,ECCENTRICITY,INCLINATION,RA_OF_ASC_NODE,ARG_OF_PERICENTER,MEAN_ANOMALY,BSTAR,MEAN_MOTION_DOT,MEAN_MOTION_DDOT,TLE_LINE0,TLE_LINE1,TLE_LINE2,SEMIMAJOR_AXIS,PERIOD,APOGEE,PERIGEE,DECAYED
53726.0,STARLINK-4697,PAYLOAD,2022-12-28 15:51:26,15.08841642,0.0002134999999999,53.2197,92.9809,25.2314,334.8782,-5.2969e-05,-1.131e-05,0.0,0 STARLINK-4697,1 53726U 22107AC  22362.66072741 -.00001131  00000-0 -52969-4 0  9996,2 53726  53.2197  92.9809 0002135  25.2314 334.8782 15.08841642 17773,6917.875,95.437,541.217,538.263,0.0
53726.0,STARLINK-4697,PAYLOAD,2022-12-29 12:31:29,15.08822068,0.0002259,53.2183,89.1156,31.4244,328.6882,-0.0002346,-4.018e-05,0.0,0 STARLINK-4697,1 53726U 22107AC  22363.52186632 -.00004018  00000-0 -23460-3 0  9997,2 53726  53.2183  89.1156 0002259  31.4244 328.6882 15.08822068 17907,6917.935,95.439,541.363,538.237,0.0
53726.0,STARLINK-4697,PAYLOAD,2022-12-30 12:22:15,15.08834772,0.0002356999999999,53.2189,84.6556,28.3985,331.7135,0.00015942,2.249e-05,0.0,0 STARLINK-4697,1 53726U 22107AC  22364.51545520  .00002249  00000-0  15942-3 0  9990,2 53726  53.2189  84.6556 0002357  28.3985 331.7135 15.08834772 18051,6917.896,95.438,541.3919999999998,538.131,0.0
53726.0,STARLINK-4697,PAYLOAD,2022-12-31 12:13:01,15.08863704,0.0002423,53.2187,80.1941,26.9523,333.1594,0.00033695,5.082e-05,0.0,0 STARLINK-4697,1 53726U 22107AC  22365.50904921  .00005082  00000-0  33695-3 0  9997,2 53726  53.2187  80.1941 0002423  26.9523 333.1594 15.08863704 18203,6917.808000000001,95.436,541.349,537.997,0.0
53726.0,STARLINK-4697,PAYLOAD,2022-12-31 16:59:11,15.08852968,0.0002458,53.2179,79.3027,30.5344,329.5791,0.00034441,5.199e-05,0.0,0 STARLINK-4697,1 53726U 22107AC  22365.70776978  .00005199  00000-0  34441-3 0  9997,2 53726  53.2179  79.3027 0002458  30.5344 329.5791 15.08852968 18230,6917.840999999999,95.437,541.406,538.005,0.0
53726.0,STARLINK-4697,PAYLOAD,2023-01-01 12:03:49,15.08821663,0.0002296999999999,53.2182,75.734,25.6103,334.5002,-0.00051081,-8.405e-05,0.0,0 STARLINK-4697,1 53726U 22107AC  23001.50265902 -.00008405  00000-0 -51081-3 0  9997,2 53726  53.2182  75.7340 0002297  25.6103 334.5002 15.08821663 18353,6917.936,95.439,541.39,538.212,0.0
53726.0,STARLINK-4697,PAYLOAD,2023-01-01 21:36:09,15.0882108,0.0002396,53.2184,73.9503,24.4388,335.6717,-0.00038529,-6.412e-05,0.0,0 STARLINK-4697,1 53726U 22107AC  23001.90010483 -.00006412  00000-0 -38529-3 0  9991,2 53726  53.2184  73.9503 0002396  24.4388 335.6717 15.08821080 18873,6917.938,95.439,541.461,538.146,0.0
53726.0,STARLINK-4697,PAYLOAD,2023-01-02 13:30:00,15.08829667,0.0002433,53.2183,70.977,26.0344,334.0771,0.00031355,4.704e-05,0.0,0 STARLINK-4697,1 53726U 22107AC  23002.56251113  .00004704  00000-0  31355-3 0  9991,2 53726  53.2183  70.9770 0002433  26.0344 334.0771 15.08829667 18510,6917.9119999999975,95.438,541.46,538.094,0.0
53726.0,STARLINK-4697,PAYLOAD,2023-01-02 21:26:56,15.08838761,0.0002467,53.2182,69.4902,25.9987,334.1129,0.00059608,9.211e-05,0.0,0 STARLINK-4697,1 53726U 22107AC  23002.89371226  .00009211  00000-0  59608-3 0  9994,2 53726  53.2182  69.4902 0002467  25.9987 334.1129 15.08838761 19027,6917.884,95.438,541.456,538.043,0.0
53726.0,STARLINK-4697,PAYLOAD,2023-01-03 05:23:52,15.08843881,0.0002466,53.2181,68.0033,25.5192,334.5921,0.00068773,0.00010675,0.0,0 STARLINK-4697,1 53726U 22107AC  23003.22491393  .00010675  00000-0  68773-3 0  9999,2 53726  53.2181  68.0033 0002466  25.5192 334.5921 15.08843881 19077,6917.869000000002,95.437,541.439,538.028,0.0
53726.0,STARLINK-4697,PAYLOAD,2023-01-03 22:53:07,15.08843798,0.0002633,53.2179,64.7331,25.984,334.1284,0.00028771,4.294e-05,0.0,0 STARLINK-4697,1 53726U 22107AC  23003.95355391  .00004294  00000-0  28771-3 0  9990,2 53726  53.2179  64.7331 0002633  25.9840 334.1284 15.08843798 18724,6917.869000000002,95.437,541.555,537.9119999999998,0.0
53726.0,STARLINK-4697,PAYLOAD,2023-01-04 10:00:48,15.08864584,0.0002608,53.2179,62.6514,26.1425,333.9699,0.0011286,0.00017732,0.0,0 STARLINK-4697,1 53726U 22107AC  23004.41722939  .00017732  00000-0  11286-2 0  9991,2 53726  53.2179  62.6514 0002608  26.1425 333.9699 15.08864584 18798,6917.805,95.436,541.474,537.866,0.0
53726.0,STARLINK-4697,PAYLOAD,2023-01-04 21:08:30,15.08870131,0.0002809,53.2179,60.5706,27.0443,333.0695,0.00096175,0.00015064,0.0,0 STARLINK-4697,1 53726U 22107AC  23004.88090358  .00015064  00000-0  96175-3 0  9992,2 53726  53.2179  60.5706 0002809  27.0443 333.0695 15.08870131 18861,6917.788000000001,95.436,541.596,537.71,0.0
53726.0,STARLINK-4697,PAYLOAD,2023-01-05 13:02:20,15.08867089,0.0002823,53.218,57.5973,29.1944,330.9205,0.00036801,5.578e-05,0.0,0 STARLINK-4697,1 53726U 22107AC  23005.54329357  .00005578  00000-0  36801-3 0  9999,2 53726  53.2180  57.5973 0002823  29.1944 330.9205 15.08867089 18962,6917.7980000000025,95.436,541.615,537.71,0.0
53726.0,STARLINK-4697,PAYLOAD,2023-01-06 12:53:08,15.08823473,0.0002804,53.2191,53.1382,26.8743,333.2393,-0.00058504,-9.584e-05,0.0,0 STARLINK-4697,1 53726U 22107AC  23006.53690029 -.00009584  00000-0 -58504-3 0  9993,2 53726  53.2191  53.1382 0002804  26.8743 333.2393 15.08823473 19111,6917.931,95.439,541.736,537.856,0.0
53726.0,STARLINK-4697,PAYLOAD,2023-01-07 01:36:13,15.08824527,0.0002759,53.22,50.7588,24.3781,335.7341,-0.00017598,-3.087e-05,0.0,0 STARLINK-4697,1 53726U 22107AC  23007.06682623 -.00003087  00000-0 -17598-3 0  9993,2 53726  53.2200  50.7588 0002759  24.3781 335.7341 15.08824527 19657,6917.928000000001,95.439,541.701,537.884,0.0
53726.0,STARLINK-4697,PAYLOAD,2023-01-07 09:33:09,15.08833221,0.0002786,53.2182,49.2722,22.5447,337.5667,0.00021333,3.108e-05,0.0,0 STARLINK-4697,1 53726U 22107AC  23007.39802688  .00003108  00000-0  21333-3 0  9998,2 53726  53.2182  49.2722 0002786  22.5447 337.5667 15.08833221 19245,6917.901,95.438,541.693,537.839,0.0
53726.0,STARLINK-4697,PAYLOAD,2023-01-07 19:05:29,15.08827947,0.0002805,53.2175,47.4879,20.2874,339.8229,0.00047005,7.198e-05,0.0,0 STARLINK-4697,1 53726U 22107AC  23007.79547538  .00007198  00000-0  47005-3 0  9999,2 53726  53.2175  47.4879 0002805  20.2874 339.8229 15.08827947 19305,6917.917,95.438,541.7230000000002,537.842,0.0
53726.0,STARLINK-4697,PAYLOAD,2023-01-08 10:59:20,15.08830073,0.0002901999999999,53.2181,44.514,27.8011,332.3135,0.00028182,4.199e-05,0.0,0 STARLINK-4697,1 53726U 22107AC  23008.45788114  .00004199  00000-0  28182-3 0  9993,2 53726  53.2181  44.5140 0002902  27.8011 332.3135 15.08830073 19864,6917.911,95.438,541.783,537.768,0.0
53726.0,STARLINK-4697,PAYLOAD,2023-01-08 18:56:15,15.08857704,0.0002543,53.2182,43.0271,21.8636,338.2465,0.00070196,0.00010907,0.0,0 STARLINK-4697,1 53726U 22107AC  23008.78906966  .00010907  00000-0  70196-3 0  9992,2 53726  53.2182  43.0271 0002543  21.8636 338.2465 15.08857704 19458,6917.826,95.436,541.45,537.932,0.0
53726.0,STARLINK-4697,PAYLOAD,2023-01-09 02:53:11,15.08833859,0.0002075,53.218,41.5396,19.6835,340.4237,2.158e-06,-2.54e-06,0.0,0 STARLINK-4697,1 53726U 22107AC  23009.12027603 -.00000254  00000-0  21580-5 0  9993,2 53726  53.2180  41.5396 0002075  19.6835 340.4237 15.08833859 19506,6917.899,95.438,541.2,538.3290000000002,0.0
53726.0,STARLINK-4697,PAYLOAD,2023-01-09 09:14:44,15.08826455,0.0002147,53.2174,40.349,17.9345,342.1723,-0.00014684,-2.624e-05,0.0,0 STARLINK-4697,1 53726U 22107AC  23009.38524043 -.00002624  00000-0 -14684-3 0  9990,2 53726  53.2174  40.3490 0002147  17.9345 342.1723 15.08826455 20008,6917.922,95.438,541.2719999999998,538.302,0.0
53726.0,STARLINK-4697,PAYLOAD,2023-01-10 07:30:08,15.08845842,0.0001714,53.2168,36.1866,33.7855,326.3246,0.00056976,8.793e-05,0.0,0 STARLINK-4697,1 53726U 22107AC  23010.31260071  .00008793  00000-0  56976-3 0  9994,2 53726  53.2168  36.1866 0001714  33.7855 326.3246 15.08845842 19689,6917.863,95.437,540.913,538.5419999999998,0.0
53726.0,STARLINK-4697,PAYLOAD,2023-01-10 10:40:55,15.08854519,0.000172,53.2175,35.5923,39.4868,320.6249,0.0011761,0.00018487,0.0,0 STARLINK-4697,1 53726U 22107AC  23010.44508113  .00018487  00000-0  11761-2 0  9993,2 53726  53.2175  35.5923 0001720  39.4868 320.6249 15.08854519 20164,6917.835999999998,95.437,540.891,538.511,0.0
53726.0,STARLINK-4697,PAYLOAD,2023-01-10 18:37:50,15.08850241,0.000168,53.2163,34.1053,38.8641,321.2472,0.00055955,8.631e-05,0.0,0 STARLINK-4697,1 53726U 22107AC  23010.77628237  .00008631  00000-0  55955-3 0  9993,2 53726  53.2163  34.1053 0001680  38.8641 321.2472 15.08850241 20216,6917.849,95.437,540.876,538.552,0.0
53726.0,STARLINK-4697,PAYLOAD,2023-01-11 05:45:32,15.08843059,0.0001844,53.2149,32.0228,51.3659,308.7498,0.00016644,2.362e-05,0.0,0 STARLINK-4697,1 53726U 22107AC  23011.23996347  .00002362  00000-0  16644-3 0  9992,2 53726  53.2149  32.0228 0001844  51.3659 308.7498 15.08843059 19824,6917.871,95.437,541.012,538.46,0.0
53726.0,STARLINK-4697,PAYLOAD,2023-01-11 08:56:19,15.0884693,0.0001771,53.2179,31.4297,49.3848,310.7298,0.00043606,6.659999999999999e-05,0.0,0 STARLINK-4697,1 53726U 22107AC  23011.37244372  .00006660  00000-0  43606-3 0  9994,2 53726  53.2179  31.4297 0001771  49.3848 310.7298 15.08846930 20309,6917.859,95.437,540.9490000000002,538.499,0.0
53726.0,STARLINK-4697,PAYLOAD,2023-01-11 18:28:37,15.08844953,0.0001809,53.2177,29.6465,53.6557,306.4602,0.0003935,5.981e-05,0.0,0 STARLINK-4697,1 53726U 22107AC  23011.76988425  .00005981  00000-0  39350-3 0  9997,2 53726  53.2177  29.6465 0001809  53.6557 306.4602 15.08844953 20360,6917.865,95.437,540.982,538.479,0.0
53726.0,STARLINK-4697,PAYLOAD,2023-01-12 00:50:10,15.08839683,0.0001754,53.2181,28.4563,53.7061,306.4093,0.00014429,2.009e-05,0.0,0 STARLINK-4697,1 53726U 22107AC  23012.03484554  .00002009  00000-0  14429-3 0  9990,2 53726  53.2181  28.4563 0001754  53.7061 306.4093 15.08839683 19941,6917.880999999999,95.438,540.96,538.533,0.0
